{
  "type": "FeatureCollection",
  "features": [
    {"type":"Feature","properties":{"id":"UI-II_CTR-West","minFL":200,"maxFL":599},"geometry":{"type":"MultiPolygon","coordinates":[[[[103.44,54.42388888888889],[102.90444444444445,54.14805555555556],[102.28666666666666,54.405833333333334],[102.28666666666666,54.405833333333334],[101.87333333333332,53.908055555555556],[101.87333333333332,53.908055555555556],[96.99944444444445,54.99333333333333],[96.99944444444445,54.99333333333333],[96,54],[97.3,53.58305555555556],[99,52.88305555555556],[99,52.1],[99,52.1],[99.26916666666666,52.01888888888889],[99.28333333333333,51.95166666666667],[99.7213888888889,51.908055555555556],[99.87777777777777,51.75833333333333],[100.54333333333334,51.74166666666667],[101.21666666666667,51.533055555555556],[101.41416666666667,51.44555555555555],[101.51166666666667,51.4975],[102.15416666666667,51.30638888888888],[102.22694444444444,50.830555555555556],[102.31305555555555,50.74166666666667],[102.33305555555555,50.6],[102.59833333333333,50.409166666666664],[102.92194444444445,50.299166666666665],[103.23805555555556,50.2975],[103.26666666666667,50.19555555555555],[103.51,50.198055555555555],[103.73055555555555,50.13388888888889],[103.78527777777778,50.19583333333333],[104.11472222222221,50.144444444444446],[104.11472222222221,50.144444444444446],[104.13166666666666,50.13388888888889],[104.42583333333334,50.30555555555555],[104.56138888888889,50.299166666666665],[105.32333333333332,50.45916666666667],[105.32333333333332,50.45916666666667],[105.9625,50.418055555555554],[106.23555555555555,50.30694444444444],[106.46805555555555,50.308055555555555],[106.57583333333334,50.33777777777778],[106.88333333333334,50.25],[106.99666666666667,50.19888888888889],[107.07194444444444,50.05916666666666],[107.31055555555555,49.97833333333333],[107.97166666666666,49.92805555555555],[107.97166666666666,49.92805555555555],[108.60805555555555,51.21666666666667],[108.60805555555555,51.21666666666667],[109,52],[109.6,52.33305555555556],[109.6,52.33305555555556],[109.88666666666667,52.495],[110.25666666666666,55.643055555555556],[110.25666666666666,55.643055555555556],[109.56666666666666,55.75055555555556],[108.77805555555555,55.745],[108.77805555555555,55.745],[105.05055555555555,55.706944444444446],[103.44,54.42388888888889]]]]}},
    {"type":"Feature","properties":{"id":"UI-II_CTR-North","minFL":200,"maxFL":599},"geometry":{"type":"MultiPolygon","coordinates":[[[[96.99944444444445,54.99333333333333],[98,55.933055555555555],[97.57305555555556,57.325],[97.53305555555555,57.45],[100.68305555555555,57.933055555555555],[102.5,58.05],[102.5,58.05],[106.7,60.766666666666666],[106.7,60.766666666666666],[108.03305555555555,61.266666666666666],[108.03305555555555,61.266666666666666],[108.78305555555555,60.71666666666667],[108.78305555555555,60.71666666666667],[112.85333333333332,59.62555555555556],[112.85333333333332,59.62555555555556],[112.295,59.05833333333333],[111.99,58.598333333333336],[111.19444444444444,57.660555555555554],[111.71833333333333,57.02055555555555],[111.25777777777778,55.466944444444444],[110.25666666666666,55.643055555555556],[110.25666666666666,55.643055555555556],[109.56666666666666,55.75055555555556],[108.77805555555555,55.745],[108.77805555555555,55.745],[105.05055555555555,55.706944444444446],[103.44,54.42388888888889],[103.44,54.42388888888889],[102.90444444444445,54.14805555555556],[102.28666666666666,54.405833333333334],[102.28666666666666,54.405833333333334],[101.87333333333332,53.908055555555556],[101.87333333333332,53.908055555555556],[96.99944444444445,54.99333333333333]]]]}},
    {"type":"Feature","properties":{"id":"UI-II_CTR-East","minFL":200,"maxFL":599},"geometry":{"type":"MultiPolygon","coordinates":[[[[107.97166666666666,49.92805555555555],[107.97666666666667,49.665],[108.28888888888889,49.54333333333333],[108.57416666666666,49.32805555555556],[108.76083333333334,49.33888888888889],[109.19916666666667,49.345],[109.41805555555555,49.30166666666666],[109.78305555555555,49.21666666666667],[110.24416666666667,49.21388888888889],[110.37833333333333,49.278055555555554],[110.37833333333333,49.278055555555554],[110.65027777777779,49.20027777777778],[110.93694444444445,49.20277777777778],[111.39666666666668,49.34666666666667],[111.92277777777778,49.36694444444444],[112.2,49.43833333333333],[112.41416666666667,49.50527777777778],[112.70194444444445,49.48166666666667],[112.91666666666667,49.56666666666667],[113.10027777777778,49.595555555555556],[113.22694444444444,49.81916666666667],[114.2625,50.27388888888889],[114.2625,50.27388888888889],[114.9225,50.183055555555555],[115.35527777777777,49.89055555555556],[115.75,49.9],[116.06583333333333,50.01305555555555],[116.21555555555555,50.02444444444444],[116.59833333333333,49.9225],[116.7,49.833333333333336],[116.7,49.833333333333336],[116.99805555555555,49.69],[116.99805555555555,49.69],[117.37805555555555,49.626666666666665],[117.37805555555555,49.626666666666665],[117.83833333333332,49.52777777777778],[117.83833333333332,49.52777777777778],[118.49638888888889,49.791666666666664],[118.49638888888889,49.791666666666664],[118.62833333333333,49.91555555555556],[119.00166666666667,49.964444444444446],[119.30416666666666,50.16583333333333],[119.30833333333334,50.32638888888889],[119.13,50.37138888888889],[119.23527777777778,50.59583333333334],[119.45833333333334,50.73416666666667],[119.48027777777779,50.871944444444445],[119.84166666666667,51.29416666666666],[120.03833333333333,51.615],[120.50055555555555,51.89888888888889],[120.765,52.123333333333335],[120.64750000000001,52.345],[120.70555555555556,52.575],[120.45166666666667,52.66083333333333],[120.07166666666666,52.60277777777778],[120.05416666666666,52.675555555555555],[120.045,52.683055555555555],[120.06694444444445,52.776944444444446],[120.67888888888889,53.14666666666667],[120.88138888888888,53.30916666666666],[121.12555555555555,53.275555555555556],[122.33305555555555,53.5],[122.33305555555555,53.5],[121.98305555555555,53.96666666666667],[122.33305555555555,55.5],[122.33305555555555,55.5],[119.66666666666667,56.683055555555555],[119.33305555555555,58.416666666666664],[119.33305555555555,58.416666666666664],[114.86666666666666,59.6],[114.86666666666666,59.6],[113.88305555555554,59.31666666666667],[113.88305555555554,59.31666666666667],[112.85333333333332,59.62555555555556],[112.85333333333332,59.62555555555556],[112.295,59.05833333333333],[111.99,58.598333333333336],[111.19444444444444,57.660555555555554],[111.71833333333333,57.02055555555555],[111.25777777777778,55.466944444444444],[110.25666666666666,55.643055555555556],[110.25666666666666,55.643055555555556],[109.88666666666667,52.495],[109.6,52.33305555555556],[109.6,52.33305555555556],[109,52],[108.60805555555555,51.21666666666667],[108.60805555555555,51.21666666666667],[107.97166666666666,49.92805555555555]]]]}},
    {"type":"Feature","properties":{"id":"UI-II_UIUU_APP(1)","minFL":37,"maxFL":99},"geometry":{"type":"MultiPolygon","coordinates":[[[[108.08999999999999,51.85666666666667],[108.015,52],[107.63,52.1],[107.56777777777778,52.11333333333334],[107.515,52.12],[107.46138888888889,52.123333333333335],[107.40777777777778,52.12305555555555],[107.35416666666666,52.11944444444445],[107.30166666666666,52.11222222222222],[107.25083333333333,52.10166666666667],[107.25083333333333,52.10166666666667],[107.20194444444445,52.088055555555556],[107.15555555555557,52.071111111111115],[107.1125,52.05138888888889],[107.07305555555556,52.02916666666667],[107.03777777777778,52.004444444444445],[107.00666666666666,51.9775],[106.98055555555555,51.948611111111106],[106.95944444444444,51.91833333333333],[106.94361111111111,51.88666666666666],[106.93305555555555,51.85416666666667],[106.92833333333334,51.82138888888889],[106.92916666666667,51.788333333333334],[106.93527777777778,51.75555555555555],[106.94722222222222,51.723333333333336],[106.96444444444445,51.69222222222222],[106.96444444444445,51.69222222222222],[106.98666666666666,51.66222222222222],[107.01388888888889,51.63388888888889],[107.04555555555555,51.60722222222223],[107.08166666666666,51.58305555555556],[107.12166666666666,51.56111111111111],[107.165,51.54222222222222],[107.21111111111111,51.52583333333333],[107.25972222222222,51.51277777777778],[107.31055555555555,51.50277777777778],[107.3625,51.49638888888889],[107.41527777777779,51.49305555555556],[107.46833333333333,51.49333333333333],[107.52083333333333,51.496944444444445],[107.57277777777777,51.50388888888889],[107.62305555555555,51.51444444444444],[107.67166666666667,51.52777777777778],[107.7175,51.544444444444444],[107.7175,51.544444444444444],[107.76027777777777,51.56388888888888],[107.79972222222221,51.586111111111116],[107.83527777777778,51.61083333333333],[107.86638888888888,51.6375],[107.89305555555556,51.66611111111111],[108.08999999999999,51.85666666666667]]]]}},
    {"type":"Feature","properties":{"id":"UI-II_UIUU_APP(2)","minFL":100,"maxFL":199},"geometry":{"type":"MultiPolygon","coordinates":[[[[106.88666666666667,52.45166666666667],[107.89305555555556,52.36666666666667],[109.6,52.33305555555556],[109.6,52.33305555555556],[109,52],[108.60805555555555,51.21666666666667],[108.60805555555555,51.21666666666667],[107.9,51.266666666666666],[107.9,51.266666666666666],[107.55,51.3],[106.66666666666667,51.416666666666664],[106.11666666666666,51.88305555555556],[106.585,52.29666666666667],[106.88666666666667,52.45166666666667]]]]}},
    {"type":"Feature","properties":{"id":"UI-II_UINN_APP(1)","minFL":20,"maxFL":99},"geometry":{"type":"MultiPolygon","coordinates":[[[[109.1525,55.91083333333333],[109.17500000000001,55.93611111111111],[109.2025,55.959722222222226],[109.23388888888888,55.981944444444444],[109.23388888888888,55.981944444444444],[109.26972222222223,56.00194444444445],[109.30888888888889,56.019999999999996],[109.35111111111111,56.035555555555554],[109.3963888888889,56.04833333333333],[109.44361111111111,56.058611111111105],[109.4925,56.066111111111105],[109.5425,56.07055555555556],[109.59305555555555,56.07194444444445],[109.6438888888889,56.07055555555556],[109.69388888888889,56.066111111111105],[109.74277777777777,56.058611111111105],[109.78999999999999,56.04833333333333],[109.83527777777778,56.035555555555554],[109.8775,56.019999999999996],[109.91666666666667,56.00194444444445],[109.9525,55.981944444444444],[109.98388888888888,55.959722222222226],[110.01138888888889,55.93611111111111],[110.03388888888888,55.91083333333333],[110.05166666666666,55.884166666666665],[110.06444444444445,55.856944444444444],[110.07194444444444,55.82888888888889],[110.07416666666666,55.800555555555555],[110.07138888888889,55.77222222222222],[110.06305555555555,55.74444444444445],[110.04972222222221,55.717222222222226],[110.03138888888888,55.69083333333333],[110.03138888888888,55.69083333333333],[110.00833333333334,55.66555555555556],[109.98083333333334,55.64194444444444],[109.94916666666667,55.62],[109.91333333333334,55.60027777777778],[109.87444444444444,55.5825],[109.83222222222221,55.56722222222223],[109.78777777777778,55.55444444444444],[109.74083333333333,55.54416666666666],[109.69250000000001,55.536944444444444],[109.64305555555556,55.5325],[109.59305555555555,55.53111111111111],[109.54333333333334,55.5325],[109.49388888888889,55.536944444444444],[109.44555555555556,55.54416666666666],[109.39888888888889,55.55444444444444],[109.35416666666666,55.56722222222223],[109.31194444444444,55.5825],[109.27305555555556,55.60027777777778],[109.23722222222223,55.62],[109.20555555555556,55.64194444444444],[109.17805555555556,55.66555555555556],[109.155,55.69083333333333],[109.13666666666667,55.717222222222226],[109.12333333333332,55.74444444444445],[109.115,55.77222222222222],[109.11222222222221,55.800555555555555],[109.11444444444444,55.82888888888889],[109.12194444444444,55.856944444444444],[109.13472222222222,55.884166666666665],[109.1525,55.91083333333333]]]]}},
    {"type":"Feature","properties":{"id":"UI-II_UINN_APP(2)","minFL":100,"maxFL":199},"geometry":{"type":"MultiPolygon","coordinates":[[[[110.25666666666666,55.643055555555556],[110.73305555555555,55.8],[110.7,56.13305555555556],[108.83305555555555,56.1],[108.83305555555555,56.1],[108.77805555555555,55.745],[108.77805555555555,55.745],[108.75,55.36666666666667],[109.18305555555555,55.36666666666667],[109.76666666666667,55.266666666666666],[110.25666666666666,55.643055555555556]]]]}},
    {"type":"Feature","properties":{"id":"UI-II_UIII_R_APP(2)","minFL":30,"maxFL":79},"geometry":{"type":"MultiPolygon","coordinates":[[[[103.90527777777778,52.465833333333336],[103.9,52.48305555555556],[103.9,52.48305555555556],[103.86305555555555,52.613055555555555],[103.86305555555555,52.613055555555555],[103.92027777777778,52.60527777777778],[104.03722222222223,52.55416666666667],[104.03722222222223,52.55416666666667],[104.0886111111111,52.57555555555556],[104.14305555555556,52.593333333333334],[104.20083333333334,52.60777777777778],[104.26027777777777,52.61833333333333],[104.32166666666666,52.625],[104.38361111111112,52.6275],[104.44583333333334,52.62638888888889],[104.50722222222223,52.62111111111111],[104.5675,52.61194444444445],[104.62583333333333,52.598888888888894],[104.68166666666667,52.58222222222223],[104.73416666666667,52.56222222222222],[104.78305555555555,52.538888888888884],[104.8275,52.5125],[104.86694444444444,52.483333333333334],[104.90138888888889,52.45194444444445],[104.93,52.41861111111111],[104.95277777777778,52.38361111111111],[104.96944444444445,52.34722222222222],[104.97972222222222,52.309999999999995],[104.98361111111112,52.27222222222222],[104.98111111111112,52.234722222222224],[104.97222222222223,52.197222222222216],[104.95694444444445,52.16083333333333],[104.93527777777778,52.125277777777775],[104.90805555555556,52.09138888888889],[104.90805555555556,52.09138888888889],[104.87527777777777,52.05972222222222],[104.83722222222222,52.03],[104.79444444444444,52.003055555555555],[104.74722222222222,51.97888888888889],[104.69638888888889,51.95777777777778],[104.64222222222223,51.94027777777777],[104.58555555555554,51.92611111111111],[104.52666666666667,51.91583333333333],[104.46638888888889,51.909166666666664],[104.40527777777778,51.906666666666666],[104.34416666666667,51.907777777777774],[104.28361111111111,51.91305555555555],[104.22416666666666,51.92194444444444],[104.16666666666667,51.93472222222222],[104.11166666666666,51.95111111111111],[104.05944444444444,51.971111111111114],[104.01083333333334,51.994166666666665],[103.96666666666667,52.02027777777778],[103.92666666666668,52.04888888888889],[103.89194444444445,52.080000000000005],[103.86277777777777,52.113055555555555],[103.83916666666666,52.14805555555556],[103.82166666666666,52.18416666666666],[103.81055555555555,52.22138888888889],[103.80555555555556,52.25888888888889],[103.80722222222222,52.29666666666667],[103.81527777777778,52.33416666666667],[103.82972222222222,52.37083333333334],[103.85027777777778,52.406388888888884],[103.87694444444443,52.44027777777777],[103.90527777777778,52.465833333333336]]]]}},
    {"type":"Feature","properties":{"id":"UI-II_UIII_APP","minFL":80,"maxFL":199},"geometry":{"type":"MultiPolygon","coordinates":[[[[105.41666666666667,52.033055555555556],[105.33305555555555,52.3],[105.21666666666667,52.95],[105.21666666666667,52.95],[103.78305555555555,53.15],[103.66666666666667,53.15],[103.86305555555555,52.613055555555555],[103.86305555555555,52.613055555555555],[103.9,52.48305555555556],[103.9,52.48305555555556],[103.215,52.628055555555555],[103.215,52.628055555555555],[103.2,52.433055555555555],[103.26666666666667,52.2],[103.68305555555555,51.71666666666667],[104.60305555555556,51.45166666666667],[104.60305555555556,51.45166666666667],[105.16166666666668,51.57666666666667],[105.41666666666667,52.033055555555556]]]]}},
    {"type":"Feature","properties":{"id":"UI-II_Belaya","minFL":20,"maxFL":199},"geometry":{"type":"MultiPolygon","coordinates":[[[[103.215,52.628055555555555],[102.25,53],[102.39694444444446,53.230555555555554],[102.79694444444445,53.38055555555555],[102.79694444444445,53.38055555555555],[103.40944444444445,53.4375],[103.86305555555555,52.613055555555555],[103.86305555555555,52.613055555555555],[103.215,52.628055555555555]]]]}},
    {"type":"Feature","properties":{"id":"UI-II_UIBB_APP(1)","minFL":33,"maxFL":69},"geometry":{"type":"MultiPolygon","coordinates":[[[[101.14916666666667,56.70416666666667],[101.21555555555555,56.73416666666667],[101.2875,56.76],[101.36388888888888,56.781666666666666],[101.44416666666667,56.79888888888889],[101.52722222222222,56.81111111111111],[101.6125,56.81861111111112],[101.69833333333334,56.821111111111115],[101.78444444444445,56.81861111111112],[101.86972222222222,56.81111111111111],[101.95277777777778,56.79888888888889],[102.03305555555555,56.781666666666666],[102.10944444444443,56.76],[102.18138888888889,56.73416666666667],[102.24777777777778,56.70416666666667],[102.30805555555555,56.67055555555555],[102.36138888888888,56.63361111111111],[102.4075,56.593611111111116],[102.44555555555556,56.55138888888889],[102.47527777777778,56.507222222222225],[102.49638888888889,56.461666666666666],[102.50861111111111,56.415],[102.51222222222222,56.367777777777775],[102.50666666666666,56.32055555555556],[102.4925,56.274166666666666],[102.46944444444445,56.22888888888889],[102.43833333333333,56.184999999999995],[102.39916666666667,56.143055555555556],[102.35222222222221,56.10388888888889],[102.29833333333333,56.0675],[102.23833333333333,56.03444444444444],[102.23833333333333,56.03444444444444],[102.17222222222223,56.005],[102.10111111111111,55.97944444444445],[102.02583333333334,55.958333333333336],[101.94722222222222,55.94166666666666],[101.86583333333333,55.92944444444444],[101.7825,55.92222222222222],[101.69833333333334,55.91972222222222],[101.61444444444444,55.92222222222222],[101.53111111111112,55.92944444444444],[101.44972222222222,55.94166666666666],[101.3711111111111,55.958333333333336],[101.29583333333333,55.97944444444445],[101.22472222222223,56.005],[101.15861111111111,56.03444444444444],[101.09861111111111,56.0675],[101.04472222222222,56.10388888888889],[100.99777777777778,56.143055555555556],[100.95861111111111,56.184999999999995],[100.92750000000001,56.22888888888889],[100.90444444444445,56.274166666666666],[100.89027777777778,56.32055555555556],[100.88472222222222,56.367777777777775],[100.88833333333334,56.415],[100.90055555555556,56.461666666666666],[100.92166666666667,56.507222222222225],[100.95138888888889,56.55138888888889],[100.98944444444444,56.593611111111116],[101.03555555555555,56.63361111111111],[101.08888888888889,56.67055555555555],[101.14916666666667,56.70416666666667]]]]}},
    {"type":"Feature","properties":{"id":"UI-II_UIBB_APP(2)","minFL":70,"maxFL":199},"geometry":{"type":"MultiPolygon","coordinates":[[[[103.00611111111111,55.7],[103.12472222222222,55.779444444444444],[103.2286111111111,55.86527777777778],[103.31666666666666,55.95638888888889],[103.38722222222223,56.052499999999995],[103.43972222222223,56.151944444444446],[103.47361111111111,56.25416666666667],[103.48833333333333,56.3575],[103.48333333333333,56.46138888888889],[103.41444444444446,56.665],[103.35111111111111,56.76277777777778],[103.26916666666666,56.85638888888889],[103.16916666666667,56.94472222222222],[103.05222222222221,57.026666666666664],[102.92,57.10138888888889],[102.77333333333333,57.168055555555554],[102.61416666666666,57.225833333333334],[102.44444444444444,57.27388888888889],[102.26583333333333,57.31222222222222],[102.08055555555555,57.33972222222222],[101.89055555555557,57.35638888888889],[101.69833333333334,57.36194444444445],[101.69833333333334,57.36194444444445],[101.50638888888889,57.35638888888889],[101.31638888888888,57.33972222222222],[101.13111111111111,57.31222222222222],[100.9525,57.27388888888889],[100.78277777777778,57.225833333333334],[100.6236111111111,57.168055555555554],[100.47694444444444,57.10138888888889],[100.47694444444444,57.10138888888889],[100.34472222222222,57.026666666666664],[100.22777777777777,56.94472222222222],[100.12777777777777,56.85638888888889],[100.04583333333333,56.76277777777778],[99.9825,56.665],[99.93833333333333,56.564166666666665],[99.91361111111112,56.46138888888889],[99.90861111111111,56.3575],[99.92333333333333,56.25416666666667],[99.95722222222223,56.151944444444446],[100.00972222222222,56.052499999999995],[100.08027777777778,55.95638888888889],[100.16833333333334,55.86527777777778],[100.27222222222223,55.779444444444444],[100.39083333333333,55.7],[100.52333333333333,55.628055555555555],[100.66777777777779,55.56388888888888],[100.82305555555556,55.50861111111111],[100.98722222222223,55.462500000000006],[101.15861111111111,55.42638888888889],[101.33555555555554,55.4],[101.51611111111112,55.384166666666665],[101.69833333333334,55.37888888888889],[101.69833333333334,55.37888888888889],[101.88083333333333,55.384166666666665],[102.06138888888889,55.4],[102.23833333333333,55.42638888888889],[102.40972222222223,55.462500000000006],[102.57388888888889,55.50861111111111],[102.72916666666667,55.56388888888888],[102.8736111111111,55.628055555555555],[103.00611111111111,55.7]]]]}},
    {"type":"Feature","properties":{"id":"UI-II_UIAA_APP(1)","minFL":37,"maxFL":99},"geometry":{"type":"MultiPolygon","coordinates":[[[[113.73972222222223,51.5575],[113.65833333333335,51.53194444444444],[113.57333333333332,51.511944444444445],[113.48555555555555,51.4975],[113.48555555555555,51.4975],[113.39555555555556,51.48861111111111],[113.30499999999999,51.48583333333333],[113.21416666666667,51.48861111111111],[113.12416666666665,51.4975],[113.0363888888889,51.511944444444445],[112.95138888888889,51.53194444444444],[112.86999999999999,51.5575],[112.79333333333334,51.58777777777778],[112.72194444444445,51.62305555555555],[112.65694444444445,51.66277777777778],[112.59888888888888,51.70666666666667],[112.54833333333333,51.75361111111111],[112.50583333333333,51.803888888888885],[112.47222222222223,51.85638888888889],[112.44722222222222,51.91083333333333],[112.43194444444445,51.96666666666667],[112.42583333333334,52.02333333333333],[112.42972222222222,52.07972222222222],[112.44305555555556,52.13583333333333],[112.46583333333334,52.190555555555555],[112.49805555555555,52.24388888888889],[112.53916666666666,52.294444444444444],[112.5886111111111,52.342222222222226],[112.6463888888889,52.38666666666666],[112.71138888888889,52.426944444444445],[112.78305555555555,52.46277777777778],[112.86083333333333,52.494166666666665],[112.94333333333334,52.519999999999996],[113.03,52.54055555555556],[113.11999999999999,52.555277777777775],[113.21194444444444,52.56444444444444],[113.30499999999999,52.56722222222223],[113.30499999999999,52.56722222222223],[113.39777777777779,52.56444444444444],[113.39777777777779,52.56444444444444],[113.48972222222223,52.555277777777775],[113.57972222222222,52.54055555555556],[113.66638888888889,52.519999999999996],[113.74888888888889,52.494166666666665],[113.82666666666667,52.46277777777778],[113.89833333333334,52.426944444444445],[113.96333333333334,52.38666666666666],[114.02111111111111,52.342222222222226],[114.07055555555556,52.294444444444444],[114.11166666666666,52.24388888888889],[114.1438888888889,52.190555555555555],[114.16666666666667,52.13583333333333],[114.18,52.07972222222222],[114.18388888888889,52.02333333333333],[114.17777777777778,51.96666666666667],[114.16250000000001,51.91083333333333],[114.1375,51.85638888888889],[114.10388888888889,51.803888888888885],[114.06138888888889,51.75361111111111],[114.01083333333334,51.70666666666667],[113.95277777777778,51.66277777777778],[113.88777777777779,51.62305555555555],[113.81638888888888,51.58777777777778],[113.73972222222223,51.5575]]]]}},
    {"type":"Feature","properties":{"id":"UI-II_UIAA_APP(2)","minFL":100,"maxFL":199},"geometry":{"type":"MultiPolygon","coordinates":[[[[114.53388888888888,51.10055555555556],[114.35,51.63305555555556],[114.95305555555557,51.676944444444445],[115.03027777777778,51.83111111111111],[115.05583333333333,51.94305555555555],[115.06277777777777,52.05611111111111],[115.05,52.16916666666666],[115.01833333333333,52.28055555555555],[114.96722222222222,52.38944444444444],[114.89777777777779,52.49444444444445],[114.81,52.59444444444445],[114.58472222222221,52.77444444444444],[114.44916666666667,52.85277777777778],[114.30027777777778,52.92166666666667],[114.14,52.980555555555554],[113.97,53.02916666666667],[113.79194444444444,53.066111111111105],[113.79194444444444,53.066111111111105],[113.60833333333333,53.09166666666667],[113.4213888888889,53.10527777777778],[113.23277777777778,53.10666666666667],[113.23277777777778,53.10666666666667],[113.045,53.096111111111114],[112.86027777777777,53.07333333333334],[112.68083333333334,53.038888888888884],[112.50888888888889,52.99305555555556],[112.3461111111111,52.936388888888885],[112.19444444444444,52.86972222222222],[112.05555555555556,52.79361111111111],[111.93138888888889,52.70916666666667],[111.82277777777777,52.61694444444444],[111.73111111111112,52.51833333333333],[111.65722222222223,52.41444444444444],[111.60166666666666,52.30638888888888],[111.56527777777778,52.19555555555555],[111.54833333333333,52.08277777777778],[111.55055555555555,51.969722222222224],[111.57166666666666,51.85722222222223],[111.61194444444443,51.74666666666667],[111.67,51.63944444444444],[111.74583333333334,51.53638888888889],[111.83805555555556,51.43888888888888],[111.94583333333334,51.34777777777778],[112.0675,51.26416666666667],[112.2025,51.18861111111111],[112.34861111111111,51.12222222222222],[112.50472222222223,51.065555555555555],[112.66888888888889,51.019444444444446],[112.83972222222222,50.98388888888889],[113.01527777777778,50.95944444444445],[113.19388888888889,50.946666666666665],[113.3736111111111,50.945277777777775],[113.5525,50.955555555555556],[113.72805555555556,50.980000000000004],[113.72805555555556,50.980000000000004],[114.53388888888888,51.10055555555556]]]]}},
    {"type":"Feature","properties":{"id":"UI-II_UITT_TWR","minFL":23,"maxFL":199},"geometry":{"type":"MultiPolygon","coordinates":[[[[106.13722222222223,56.466944444444444],[106.20916666666668,56.4925],[106.2761111111111,56.52166666666667],[106.33694444444444,56.555],[106.3913888888889,56.59138888888889],[106.4388888888889,56.63055555555555],[106.4786111111111,56.6725],[106.51027777777777,56.71611111111111],[106.53361111111111,56.76166666666666],[106.54805555555555,56.808055555555555],[106.55361111111111,56.85527777777778],[106.55,56.90222222222222],[106.5375,56.94888888888889],[106.51611111111112,56.99472222222222],[106.48611111111111,57.038888888888884],[106.4475,57.08111111111111],[106.40083333333334,57.12111111111111],[106.34694444444445,57.158055555555556],[106.28583333333333,57.19166666666666],[106.21861111111112,57.22166666666667],[106.14583333333334,57.2475],[106.06833333333333,57.26916666666666],[105.98694444444445,57.28638888888889],[105.72916666666667,57.308611111111105],[105.64222222222223,57.30611111111111],[105.55583333333333,57.29861111111111],[105.47166666666666,57.28638888888889],[105.39027777777778,57.26916666666666],[105.31277777777777,57.2475],[105.31277777777777,57.2475],[105.24,57.22166666666667],[105.17277777777778,57.19166666666666],[105.11166666666666,57.158055555555556],[105.05777777777777,57.12111111111111],[105.0111111111111,57.08111111111111],[104.9725,57.038888888888884],[104.94250000000001,56.99472222222222],[104.92111111111112,56.94888888888889],[104.90861111111111,56.90222222222222],[104.905,56.85527777777778],[104.905,56.85527777777778],[104.91055555555556,56.808055555555555],[104.92500000000001,56.76166666666666],[104.94833333333334,56.71611111111111],[104.98,56.6725],[105.01972222222223,56.63055555555555],[105.06722222222221,56.59138888888889],[105.12166666666666,56.555],[105.1825,56.52166666666667],[105.24944444444445,56.4925],[105.32138888888889,56.466944444444444],[105.39777777777779,56.44583333333333],[105.39777777777779,56.44583333333333],[105.4775,56.42916666666667],[105.56,56.41694444444444],[105.64416666666668,56.40972222222222],[105.72916666666667,56.407222222222224],[105.81444444444445,56.40972222222222],[105.98111111111112,56.42916666666667],[106.06083333333333,56.44583333333333],[106.13722222222223,56.466944444444444]]]]}},
    {"type":"Feature","properties":{"id":"UI-II_Kirensk","minFL":20,"maxFL":199},"geometry":{"type":"MultiPolygon","coordinates":[[[[107.63166666666666,58.16222222222222],[107.55694444444444,58.13638888888889],[107.48805555555556,58.10638888888889],[107.42555555555556,58.072500000000005],[107.36999999999999,58.035555555555554],[107.32222222222222,57.99583333333334],[107.28277777777778,57.953611111111115],[107.25194444444445,57.909444444444446],[107.23,57.86361111111111],[107.21722222222222,57.816944444444445],[107.21361111111112,57.76972222222222],[107.21944444444445,57.72277777777778],[107.23416666666667,57.67638888888889],[107.25805555555556,57.630833333333335],[107.29055555555556,57.58694444444445],[107.33138888888888,57.54527777777778],[107.38,57.505833333333335],[107.43583333333333,57.46944444444445],[107.49833333333333,57.436388888888885],[107.56694444444445,57.40694444444444],[107.64083333333333,57.38166666666667],[107.71888888888888,57.36055555555556],[107.80055555555555,57.34388888888889],[107.88527777777779,57.33166666666667],[107.9713888888889,57.324444444444445],[108.05888888888889,57.32194444444445],[108.14611111111111,57.324444444444445],[108.14611111111111,57.324444444444445],[108.23222222222222,57.33166666666667],[108.31694444444445,57.34388888888889],[108.39861111111112,57.36055555555556],[108.47666666666667,57.38166666666667],[108.55055555555555,57.40694444444444],[108.61888888888888,57.436388888888885],[108.68166666666667,57.46944444444445],[108.7375,57.505833333333335],[108.78611111111111,57.54527777777778],[108.82694444444444,57.58694444444445],[108.85944444444443,57.630833333333335],[108.88305555555554,57.67638888888889],[108.89805555555556,57.72277777777778],[108.9038888888889,57.76972222222222],[108.90027777777779,57.816944444444445],[108.8875,57.86361111111111],[108.86555555555555,57.909444444444446],[108.83472222222221,57.953611111111115],[108.79527777777777,57.99583333333334],[108.7475,58.035555555555554],[108.69194444444445,58.072500000000005],[108.62944444444443,58.10638888888889],[108.56055555555555,58.13638888888889],[108.48583333333333,58.16222222222222],[108.4063888888889,58.18388888888889],[108.32305555555556,58.20111111111111],[108.23666666666666,58.21333333333334],[108.14833333333334,58.22083333333334],[108.05888888888889,58.223333333333336],[107.96916666666667,58.22083333333334],[107.88083333333333,58.21333333333334],[107.79444444444444,58.20111111111111],[107.71111111111111,58.18388888888889],[107.63166666666666,58.16222222222222]]]]}},
    {"type":"Feature","properties":{"id":"UI-II_UIKB_TWR","minFL":20,"maxFL":199},"geometry":{"type":"MultiPolygon","coordinates":[[[[114.23305555555555,57.4175],[114.14583333333334,57.419999999999995],[114.05916666666667,57.42722222222222],[113.97444444444444,57.43944444444444],[113.89250000000001,57.45611111111111],[113.81416666666667,57.477222222222224],[113.74027777777778,57.5025],[113.6713888888889,57.53194444444444],[113.60888888888888,57.565],[113.55277777777778,57.60138888888889],[113.5038888888889,57.64083333333333],[113.46305555555556,57.6825],[113.43055555555556,57.72638888888889],[113.40666666666667,57.77166666666667],[113.39166666666668,57.818333333333335],[113.38583333333334,57.86527777777778],[113.38944444444445,57.9125],[113.40222222222222,57.95916666666667],[113.42416666666666,58.005],[113.45527777777778,58.049166666666665],[113.49472222222222,58.09138888888889],[113.5425,58.13111111111111],[113.59805555555555,58.168055555555554],[113.66083333333334,58.20194444444445],[113.73,58.231944444444444],[113.80499999999999,58.257777777777775],[113.88444444444445,58.279444444444444],[113.96805555555555,58.29666666666667],[114.05472222222222,58.30888888888889],[114.14361111111111,58.31638888888889],[114.23305555555555,58.31888888888889],[114.32277777777777,58.31638888888889],[114.41166666666668,58.30888888888889],[114.49805555555555,58.29666666666667],[114.58194444444445,58.279444444444444],[114.58194444444445,58.279444444444444],[114.6613888888889,58.257777777777775],[114.7363888888889,58.231944444444444],[114.80555555555556,58.20194444444445],[114.86805555555554,58.168055555555554],[114.9238888888889,58.13111111111111],[114.97166666666666,58.09138888888889],[115.0111111111111,58.049166666666665],[115.04222222222222,58.005],[115.06416666666667,57.95916666666667],[115.07694444444444,57.9125],[115.08055555555555,57.86527777777778],[115.07472222222222,57.818333333333335],[115.05972222222222,57.77166666666667],[115.03583333333333,57.72638888888889],[115.00333333333333,57.6825],[114.9625,57.64083333333333],[114.91361111111112,57.60138888888889],[114.85777777777777,57.565],[114.795,57.53194444444444],[114.72638888888889,57.5025],[114.65222222222222,57.477222222222224],[114.57388888888889,57.45611111111111],[114.49194444444444,57.43944444444444],[114.40722222222223,57.42722222222222],[114.32055555555556,57.419999999999995],[114.23305555555555,57.4175]]]]}},
    {"type":"Feature","properties":{"id":"UI-II_UIII_R_APP(1)","minFL":20,"maxFL":29},"geometry":{"type":"MultiPolygon","coordinates":[[[[103.9,52.48305555555556],[103.90527777777778,52.465833333333336],[103.90527777777778,52.465833333333336],[103.94305555555556,52.34055555555556],[104.44,52.12916666666667],[104.44,52.12916666666667],[104.79416666666667,52.11333333333334],[104.79416666666667,52.11333333333334],[104.85,52.190555555555555],[104.85,52.190555555555555],[104.03722222222223,52.55416666666667],[104.03722222222223,52.55416666666667],[103.92027777777778,52.60527777777778],[103.86305555555555,52.613055555555555],[103.86305555555555,52.613055555555555],[103.9,52.48305555555556]]]]}},
}